{
 "generated_at": "2026-07-18T07:00:39Z",
 "sources": [
  {
   "name": "CelesTrak",
   "url": "https://celestrak.org/NORAD/elements/",
   "license": "frei verfügbar; Attribution. Ursprünglich USSPACECOM/Space-Track."
  },
  {
   "name": "GCAT (J. McDowell, planet4589.org)",
   "url": "https://planet4589.org/space/gcat/",
   "license": "CC-BY 4.0"
  }
 ],
 "satellites": [
  {
   "norad": 58990,
   "name": "INSAT-3DS",
   "intl": "2024-033A",
   "group": "weather",
   "gcat": {
    "class": "C",
    "category": "MET",
    "owner": "ISRO",
    "state": "IN"
   },
   "omm": {
    "OBJECT_NAME": "INSAT-3DS",
    "OBJECT_ID": "2024-033A",
    "EPOCH": "2026-07-17T22:13:02.849088",
    "MEAN_MOTION": 1.00270806,
    "ECCENTRICITY": 0.00011686,
    "INCLINATION": 0.0834,
    "RA_OF_ASC_NODE": 264.2844,
    "ARG_OF_PERICENTER": 222.5129,
    "MEAN_ANOMALY": 224.2612,
    "EPHEMERIS_TYPE": 0,
    "CLASSIFICATION_TYPE": "U",
    "NORAD_CAT_ID": 58990,
    "ELEMENT_SET_NO": 999,
    "REV_AT_EPOCH": 4737,
    "BSTAR": 0,
    "MEAN_MOTION_DOT": -0.00000164,
    "MEAN_MOTION_DDOT": 0
   }
  },
  {
   "norad": 61735,
   "name": "IONOSFERA-M 1",
   "intl": "2024-199A",
   "group": "resource",
   "gcat": {
    "class": "C",
    "category": "SCI",
    "owner": "VNIIEMI",
    "state": "RU"
   },
   "omm": {
    "OBJECT_NAME": "IONOSFERA-M 1",
    "OBJECT_ID": "2024-199A",
    "EPOCH": "2026-07-17T22:13:40.497024",
    "MEAN_MOTION": 14.22759517,
    "ECCENTRICITY": 0.00021219,
    "INCLINATION": 98.7131,
    "RA_OF_ASC_NODE": 71.7681,
    "ARG_OF_PERICENTER": 69.1779,
    "MEAN_ANOMALY": 290.9626,
    "EPHEMERIS_TYPE": 0,
    "CLASSIFICATION_TYPE": "U",
    "NORAD_CAT_ID": 61735,
    "ELEMENT_SET_NO": 999,
    "REV_AT_EPOCH": 13207,
    "BSTAR": 0.000027567501,
    "MEAN_MOTION_DOT": 1.8e-7,
    "MEAN_MOTION_DDOT": 0
   }
  },
  {
   "norad": 61736,
   "name": "IONOSFERA-M 2",
   "intl": "2024-199B",
   "group": "resource",
   "gcat": {
    "class": "C",
    "category": "SCI",
    "owner": "VNIIEMI",
    "state": "RU"
   },
   "omm": {
    "OBJECT_NAME": "IONOSFERA-M 2",
    "OBJECT_ID": "2024-199B",
    "EPOCH": "2026-07-17T23:02:57.319296",
    "MEAN_MOTION": 14.22762833,
    "ECCENTRICITY": 0.00006023,
    "INCLINATION": 98.713,
    "RA_OF_ASC_NODE": 71.7123,
    "ARG_OF_PERICENTER": 128.9511,
    "MEAN_ANOMALY": 231.172,
    "EPHEMERIS_TYPE": 0,
    "CLASSIFICATION_TYPE": "U",
    "NORAD_CAT_ID": 61736,
    "ELEMENT_SET_NO": 999,
    "REV_AT_EPOCH": 13520,
    "BSTAR": 0.000022112377,
    "MEAN_MOTION_DOT": 6e-8,
    "MEAN_MOTION_DDOT": 0
   }
  },
  {
   "norad": 64876,
   "name": "IONOSFERA-M 3",
   "intl": "2025-155A",
   "group": "resource",
   "gcat": {
    "class": "C",
    "category": "SCI",
    "owner": "VNIIEMI",
    "state": "RU"
   },
   "omm": {
    "OBJECT_NAME": "IONOSFERA-M 3",
    "OBJECT_ID": "2025-155A",
    "EPOCH": "2026-07-17T22:26:46.336128",
    "MEAN_MOTION": 14.21491113,
    "ECCENTRICITY": 0.0002362,
    "INCLINATION": 98.6042,
    "RA_OF_ASC_NODE": 160.0693,
    "ARG_OF_PERICENTER": 108.4295,
    "MEAN_ANOMALY": 251.714,
    "EPHEMERIS_TYPE": 0,
    "CLASSIFICATION_TYPE": "U",
    "NORAD_CAT_ID": 64876,
    "ELEMENT_SET_NO": 999,
    "REV_AT_EPOCH": 5077,
    "BSTAR": 0.000024632784,
    "MEAN_MOTION_DOT": 1.1e-7,
    "MEAN_MOTION_DDOT": 0
   }
  },
  {
   "norad": 64877,
   "name": "IONOSFERA-M 4",
   "intl": "2025-155B",
   "group": "resource",
   "gcat": {
    "class": "C",
    "category": "SCI",
    "owner": "VNIIEMI",
    "state": "RU"
   },
   "omm": {
    "OBJECT_NAME": "IONOSFERA-M 4",
    "OBJECT_ID": "2025-155B",
    "EPOCH": "2026-07-17T23:16:52.065120",
    "MEAN_MOTION": 14.21493535,
    "ECCENTRICITY": 0.00018625,
    "INCLINATION": 98.6041,
    "RA_OF_ASC_NODE": 160.0203,
    "ARG_OF_PERICENTER": 97.0629,
    "MEAN_ANOMALY": 263.0761,
    "EPHEMERIS_TYPE": 0,
    "CLASSIFICATION_TYPE": "U",
    "NORAD_CAT_ID": 64877,
    "ELEMENT_SET_NO": 999,
    "REV_AT_EPOCH": 5077,
    "BSTAR": 0.000025813486,
    "MEAN_MOTION_DOT": 1.4e-7,
    "MEAN_MOTION_DDOT": 0
   }
  },
  {
   "norad": 28649,
   "name": "IRS-P5 (CARTOSAT-1)",
   "intl": "2005-017A",
   "group": "resource",
   "gcat": {
    "class": null,
    "category": null,
    "owner": null,
    "state": null
   },
   "omm": {
    "OBJECT_NAME": "IRS-P5 (CARTOSAT-1)",
    "OBJECT_ID": "2005-017A",
    "EPOCH": "2026-07-17T22:44:16.499616",
    "MEAN_MOTION": 14.91121099,
    "ECCENTRICITY": 0.00012209,
    "INCLINATION": 97.5305,
    "RA_OF_ASC_NODE": 220.6167,
    "ARG_OF_PERICENTER": 50.6954,
    "MEAN_ANOMALY": 309.4373,
    "EPHEMERIS_TYPE": 0,
    "CLASSIFICATION_TYPE": "U",
    "NORAD_CAT_ID": 28649,
    "ELEMENT_SET_NO": 999,
    "REV_AT_EPOCH": 14840,
    "BSTAR": 0.000078277981,
    "MEAN_MOTION_DOT": 0.00000724,
    "MEAN_MOTION_DDOT": 0
   }
  },
  {
   "norad": 41240,
   "name": "JASON-3",
   "intl": "2016-002A",
   "group": "resource",
   "gcat": {
    "class": "C",
    "category": "SCI/MET",
    "owner": "CNES/NOAA",
    "state": "F"
   },
   "omm": {
    "OBJECT_NAME": "JASON-3",
    "OBJECT_ID": "2016-002A",
    "EPOCH": "2026-07-17T21:58:08.545152",
    "MEAN_MOTION": 12.87628772,
    "ECCENTRICITY": 0.00081557,
    "INCLINATION": 66.0416,
    "RA_OF_ASC_NODE": 61.2332,
    "ARG_OF_PERICENTER": 270.6474,
    "MEAN_ANOMALY": 89.361,
    "EPHEMERIS_TYPE": 0,
    "CLASSIFICATION_TYPE": "U",
    "NORAD_CAT_ID": 41240,
    "ELEMENT_SET_NO": 999,
    "REV_AT_EPOCH": 49120,
    "BSTAR": 0.000097149212,
    "MEAN_MOTION_DOT": -3.8e-7,
    "MEAN_MOTION_DDOT": 0
   }
  },
  {
   "norad": 39731,
   "name": "KAZEOSAT 1",
   "intl": "2014-024A",
   "group": "resource",
   "gcat": {
    "class": "C",
    "category": "IMG",
    "owner": "KAZK",
    "state": "KZ"
   },
   "omm": {
    "OBJECT_NAME": "KAZEOSAT 1",
    "OBJECT_ID": "2014-024A",
    "EPOCH": "2026-07-17T21:33:27.833184",
    "MEAN_MOTION": 14.42037203,
    "ECCENTRICITY": 0.00012041,
    "INCLINATION": 98.3196,
    "RA_OF_ASC_NODE": 270.5792,
    "ARG_OF_PERICENTER": 83.2623,
    "MEAN_ANOMALY": 276.8704,
    "EPHEMERIS_TYPE": 0,
    "CLASSIFICATION_TYPE": "U",
    "NORAD_CAT_ID": 39731,
    "ELEMENT_SET_NO": 999,
    "REV_AT_EPOCH": 64298,
    "BSTAR": -0.000020326008,
    "MEAN_MOTION_DOT": -0.00000109,
    "MEAN_MOTION_DDOT": 0
   }
  },
  {
   "norad": 40010,
   "name": "KAZEOSAT 2",
   "intl": "2014-033A",
   "group": "resource",
   "gcat": {
    "class": "C",
    "category": "IMG",
    "owner": "KAZK",
    "state": "KZ"
   },
   "omm": {
    "OBJECT_NAME": "KAZEOSAT 2",
    "OBJECT_ID": "2014-033A",
    "EPOCH": "2026-07-17T22:42:14.647968",
    "MEAN_MOTION": 14.85501195,
    "ECCENTRICITY": 0.00075829,
    "INCLINATION": 97.5389,
    "RA_OF_ASC_NODE": 36.9308,
    "ARG_OF_PERICENTER": 209.2956,
    "MEAN_ANOMALY": 150.7836,
    "EPHEMERIS_TYPE": 0,
    "CLASSIFICATION_TYPE": "U",
    "NORAD_CAT_ID": 40010,
    "ELEMENT_SET_NO": 999,
    "REV_AT_EPOCH": 65352,
    "BSTAR": -0.000002692751,
    "MEAN_MOTION_DOT": -7.3e-7,
    "MEAN_MOTION_DDOT": 0
   }
  },
  {
   "norad": 43783,
   "name": "KAZSTSAT",
   "intl": "2018-099AB",
   "group": "resource",
   "gcat": {
    "class": "B",
    "category": "IMG",
    "owner": "GHALAM",
    "state": "KZ"
   },
   "omm": {
    "OBJECT_NAME": "KAZSTSAT",
    "OBJECT_ID": "2018-099AB",
    "EPOCH": "2026-07-17T12:26:14.150112",
    "MEAN_MOTION": 14.99957207,
    "ECCENTRICITY": 0.0007259,
    "INCLINATION": 97.4315,
    "RA_OF_ASC_NODE": 229.0803,
    "ARG_OF_PERICENTER": 331.4421,
    "MEAN_ANOMALY": 28.6404,
    "EPHEMERIS_TYPE": 0,
    "CLASSIFICATION_TYPE": "U",
    "NORAD_CAT_ID": 43783,
    "ELEMENT_SET_NO": 999,
    "REV_AT_EPOCH": 41585,
    "BSTAR": 0.000019765,
    "MEAN_MOTION_DOT": 0.0000019,
    "MEAN_MOTION_DDOT": 0
   }
  }
 ]
}
