IRS-P5 (CARTOSAT-1)     
1 28649U 05017A   26198.94741319  .00000724  00000+0  78278-4 0  9994
2 28649  97.5305 220.6167 0001220  50.6954 309.4373 14.91121099148401
KAZEOSAT 1              
1 39731U 14024A   26198.89823881 -.00000109  00000+0 -20326-4 0  9995
2 39731  98.3196 270.5792 0001204  83.2623 276.8704 14.42037203642983
KAZEOSAT 2              
1 40010U 14033A   26198.94600287 -.00000073  00000+0 -26928-5 0  9991
2 40010  97.5389  36.9308 0007582 209.2956 150.7836 14.85501195653522
JASON-3                 
1 41240U 16002A   26198.91537668 -.00000038  00000+0  97149-4 0  9996
2 41240  66.0416  61.2332 0008155 270.6474  89.3610 12.87628772491205
KAZSTSAT                
1 43783U 18099AB  26198.51821933  .00000190  00000+0  19765-4 0  9991
2 43783  97.4315 229.0803 0007259 331.4421  28.6404 14.99957207415851
INSAT-3DS               
1 58990U 24033A   26198.92572742 -.00000164  00000+0  00000+0 0  9997
2 58990   0.0834 264.2844 0001168 222.5129 224.2612  1.00270806 47371
IONOSFERA-M 1           
1 61735U 24199A   26198.92616316  .00000018  00000+0  27568-4 0  9997
2 61735  98.7131  71.7681 0002121  69.1779 290.9626 14.22759517132078
IONOSFERA-M 2           
1 61736U 24199B   26198.96038564  .00000006  00000+0  22112-4 0  9992
2 61736  98.7130  71.7123 0000602 128.9511 231.1720 14.22762833135204
IONOSFERA-M 3           
1 64876U 25155A   26198.93525852  .00000011  00000+0  24633-4 0  9997
2 64876  98.6042 160.0693 0002362 108.4295 251.7140 14.21491113 50775
IONOSFERA-M 4           
1 64877U 25155B   26198.97004705  .00000014  00000+0  25813-4 0  9995
2 64877  98.6041 160.0203 0001862  97.0629 263.0761 14.21493535 50775
